[{"OBJECT_NAME":"ONEWEB-0195","OBJECT_ID":"2021-031AG","EPOCH":"2026-03-09T17:22:30.785952","MEAN_MOTION":13.1450292,"ECCENTRICITY":0.00020721,"INCLINATION":87.8983,"RA_OF_ASC_NODE":309.5383,"ARG_OF_PERICENTER":84.2268,"MEAN_ANOMALY":275.9098,"EPHEMERIS_TYPE":0,"CLASSIFICATION_TYPE":"U","NORAD_CAT_ID":48240,"ELEMENT_SET_NO":999,"REV_AT_EPOCH":23508,"BSTAR":0.00087639343,"MEAN_MOTION_DOT":3.38e-6,"MEAN_MOTION_DDOT":0},{"OBJECT_NAME":"DELTA 1 DEB","OBJECT_ID":"1972-058GT","EPOCH":"2026-03-09T03:11:42.187488","MEAN_MOTION":12.7418797,"ECCENTRICITY":0.0840146,"INCLINATION":97.4426,"RA_OF_ASC_NODE":143.2224,"ARG_OF_PERICENTER":345.2808,"MEAN_ANOMALY":12.5128,"EPHEMERIS_TYPE":0,"CLASSIFICATION_TYPE":"U","NORAD_CAT_ID":8544,"ELEMENT_SET_NO":999,"REV_AT_EPOCH":50524,"BSTAR":0.00018980273,"MEAN_MOTION_DOT":1.5e-6,"MEAN_MOTION_DDOT":0}]
